STARLINK-31857          
1 59843U 24097J   26067.98815413 -.00000913  00000+0 -23673-4 0  9990
2 59843  43.0010 277.9601 0001485 256.6613 103.4073 15.27571569101815
TEVEL2-2                
1 63219U 25052K   26068.64848259  .00020339  00000+0  69428-3 0  9991
2 63219  97.3987 324.7700 0004693 105.7930 254.3828 15.30343745 54855
